NORAD_CAT_ID,OBJECT_NAME,OBJECT_TYPE,EPOCH,MEAN_MOTION,ECCENTRICITY,INCLINATION,RA_OF_ASC_NODE,ARG_OF_PERICENTER,MEAN_ANOMALY,BSTAR,MEAN_MOTION_DOT,MEAN_MOTION_DDOT,TLE_LINE0,TLE_LINE1,TLE_LINE2,SEMIMAJOR_AXIS,PERIOD,APOGEE,PERIGEE,DECAYED
52299.0,STARLINK-3759,PAYLOAD,2023-04-29 06:31:02,15.08842242,0.000146,53.2157,112.1816,76.1026,284.0129,-4.2013e-05,-9.57e-06,0.0,0 STARLINK-3759,1 52299U 22041AQ  23119.27155300 -.00000957  00000-0 -42013-4 0  9992,2 52299  53.2157 112.1816 0001460  76.1026 284.0129 15.08842242 56682,6917.874,95.437,540.749,538.729,0.0
52299.0,STARLINK-3759,PAYLOAD,2023-04-30 09:32:33,15.08867365,0.0001277,53.2165,107.127,72.4064,287.7068,0.00026296,3.903e-05,0.0,0 STARLINK-3759,1 52299U 22041AQ  23120.39760567  .00003903  00000-0  26296-3 0  9990,2 52299  53.2165 107.1270 0001277  72.4064 287.7068 15.08867365 58076,6917.797,95.436,540.545,538.778,0.0
52299.0,STARLINK-3759,PAYLOAD,2023-05-01 04:37:13,15.08831515,0.0001406,53.2174,103.5566,80.187,279.928,-6.1958e-05,-1.274e-05,0.0,0 STARLINK-3759,1 52299U 22041AQ  23121.19252132 -.00001274  00000-0 -61958-4 0  9999,2 52299  53.2174 103.5566 0001406  80.1870 279.9280 15.08831515 58199,6917.906,95.438,540.744,538.799,0.0
52299.0,STARLINK-3759,PAYLOAD,2023-05-01 10:58:45,15.08832713,0.0001435,53.2166,102.367,79.7657,280.3496,-0.00013741,-2.474e-05,0.0,0 STARLINK-3759,1 52299U 22041AQ  23121.45747361 -.00002474  00000-0 -13741-3 0  9990,2 52299  53.2166 102.3670 0001435  79.7657 280.3496 15.08832713 58233,6917.903,95.438,540.76,538.775,0.0
52299.0,STARLINK-3759,PAYLOAD,2023-05-02 06:03:23,15.08844181,0.0001308,53.2151,98.7997,85.767,274.3472,4.9656e-05,5.03e-06,0.0,0 STARLINK-3759,1 52299U 22041AQ  23122.25235099  .00000503  00000-0  49656-4 0  9993,2 52299  53.2151  98.7997 0001308  85.7670 274.3472 15.08844181 58350,6917.868,95.437,540.637,538.828,0.0
52299.0,STARLINK-3759,PAYLOAD,2023-05-02 07:38:46,15.08846051,0.0001373,53.2151,98.5021,100.6433,259.4714,0.00020617,2.995e-05,0.0,0 STARLINK-3759,1 52299U 22041AQ  23122.31859115  .00002995  00000-0  20617-3 0  9993,2 52299  53.2151  98.5021 0001373 100.6433 259.4714 15.08846051 57149,6917.862,95.437,540.677,538.777,0.0
52299.0,STARLINK-3759,PAYLOAD,2023-05-02 15:35:42,15.08833792,0.0001483,53.2149,97.0155,81.5856,278.5304,0.00030585,4.582e-05,0.0,0 STARLINK-3759,1 52299U 22041AQ  23122.64980022  .00004582  00000-0  30585-3 0  9990,2 52299  53.2149  97.0155 0001483  81.5856 278.5304 15.08833792 58412,6917.899,95.438,540.79,538.738,0.0
52299.0,STARLINK-3759,PAYLOAD,2023-05-02 21:57:15,15.08833745,0.0001525,53.2148,95.8262,81.6088,278.5077,0.00025289,3.738e-05,0.0,0 STARLINK-3759,1 52299U 22041AQ  23122.91476199  .00003738  00000-0  25289-3 0  9992,2 52299  53.2148  95.8262 0001525  81.6088 278.5077 15.08833745 57235,6917.9,95.438,540.819,538.71,0.0
52299.0,STARLINK-3759,PAYLOAD,2023-05-03 07:29:34,15.08836656,0.0001446,53.215,94.0416,82.9881,277.1275,0.00024101,3.549e-05,0.0,0 STARLINK-3759,1 52299U 22041AQ  23123.31220266  .00003549  00000-0  24101-3 0  9991,2 52299  53.2150  94.0416 0001446  82.9881 277.1275 15.08836656 57292,6917.891,95.438,540.756,538.755,0.0
52299.0,STARLINK-3759,PAYLOAD,2023-05-03 15:26:29,15.0884037,0.0001464,53.215,92.5551,82.3179,277.7979,0.00025678,3.801e-05,0.0,0 STARLINK-3759,1 52299U 22041AQ  23123.64340238  .00003801  00000-0  25678-3 0  9990,2 52299  53.2150  92.5551 0001464  82.3179 277.7979 15.08840370 57340,6917.879,95.438,540.757,538.731,0.0
52299.0,STARLINK-3759,PAYLOAD,2023-05-04 04:09:34,15.08849247,0.0001451,53.2151,90.1754,85.7574,274.3584,0.00031989,4.808e-05,0.0,0 STARLINK-3759,1 52299U 22041AQ  23124.17331852  .00004808  00000-0  31989-3 0  9991,2 52299  53.2151  90.1754 0001451  85.7574 274.3584 15.08849247 58643,6917.852,95.437,540.721,538.713,0.0
52299.0,STARLINK-3759,PAYLOAD,2023-05-04 07:20:20,15.08850223,0.0001433,53.2153,89.5806,86.1544,273.9612,0.00032586,4.903e-05,0.0,0 STARLINK-3759,1 52299U 22041AQ  23124.30579777  .00004903  00000-0  32586-3 0  9996,2 52299  53.2153  89.5806 0001433  86.1544 273.9612 15.08850223 57447,6917.849,95.437,540.705,538.723,0.0
52299.0,STARLINK-3759,PAYLOAD,2023-05-05 04:00:21,15.08844785,0.0001311,53.216,85.7142,92.8038,267.3105,0.00017954,2.571e-05,0.0,0 STARLINK-3759,1 52299U 22041AQ  23125.16692009  .00002571  00000-0  17954-3 0  9996,2 52299  53.2160  85.7142 0001311  92.8038 267.3105 15.08844785 58792,6917.866,95.437,540.638,538.824,0.0
52299.0,STARLINK-3759,PAYLOAD,2023-05-05 21:29:36,15.08840868,0.0001308,53.2159,82.4432,93.3765,266.7376,5.7769e-05,6.32e-06,0.0,0 STARLINK-3759,1 52299U 22041AQ  23125.89556143  .00000632  00000-0  57769-4 0  9999,2 52299  53.2159  82.4432 0001308  93.3765 266.7376 15.08840868 57683,6917.878,95.437,540.648,538.838,0.0
52299.0,STARLINK-3759,PAYLOAD,2023-05-06 03:51:08,15.08844127,0.0001266,53.2162,81.2539,94.6491,265.4646,7.4027e-05,8.91e-06,0.0,0 STARLINK-3759,1 52299U 22041AQ  23126.16052043  .00000891  00000-0  74027-4 0  9993,2 52299  53.2162  81.2539 0001266  94.6491 265.4646 15.08844127 58943,6917.868,95.437,540.609,538.857,0.0
52299.0,STARLINK-3759,PAYLOAD,2023-05-07 03:41:55,15.08848562,0.000116,53.2165,76.7948,90.6351,269.4774,0.0001859,2.673e-05,0.0,0 STARLINK-3759,1 52299U 22041AQ  23127.15411859  .00002673  00000-0  18590-3 0  9999,2 52299  53.2165  76.7948 0001160  90.6351 269.4774 15.08848562 57877,6917.854,95.437,540.522,538.917,0.0
52299.0,STARLINK-3759,PAYLOAD,2023-05-08 03:32:43,15.0882954,0.0001036,53.2157,72.3361,96.9746,263.1364,-4.9548e-06,-3.67e-06,0.0,0 STARLINK-3759,1 52299U 22041AQ  23128.14772974 -.00000367  00000-0 -49548-5 0  9996,2 52299  53.2157  72.3361 0001036  96.9746 263.1364 15.08829540 59242,6917.912,95.438,540.494,539.061,0.0
52299.0,STARLINK-3759,PAYLOAD,2023-05-08 13:05:02,15.08837689,0.0001079,53.2168,70.5513,95.8403,264.2712,6.1069e-05,6.84e-06,0.0,0 STARLINK-3759,1 52299U 22041AQ  23128.54516934  .00000684  00000-0  61069-4 0  9993,2 52299  53.2168  70.5513 0001079  95.8403 264.2712 15.08837689 58081,6917.887,95.438,540.499,539.006,0.0
52299.0,STARLINK-3759,PAYLOAD,2023-05-09 03:23:30,15.08848871,0.0001116,53.2167,67.8746,91.6522,268.4597,0.00018232,2.616e-05,0.0,0 STARLINK-3759,1 52299U 22041AQ  23129.14132205  .00002616  00000-0  18232-3 0  9995,2 52299  53.2167  67.8746 0001116  91.6522 268.4597 15.08848871 59392,6917.853,95.437,540.49,538.946,0.0
52299.0,STARLINK-3759,PAYLOAD,2023-05-10 03:14:17,15.08842409,0.0001117,53.2173,63.4149,85.2028,274.9092,0.00016595,2.354e-05,0.0,0 STARLINK-3759,1 52299U 22041AQ  23130.13492870  .00002354  00000-0  16595-3 0  9992,2 52299  53.2173  63.4149 0001117  85.2028 274.9092 15.08842409 58324,6917.873,95.437,540.511,538.965,0.0
52299.0,STARLINK-3759,PAYLOAD,2023-05-11 01:29:41,15.08854255,9.64e-05,53.2179,59.2517,83.509,276.6012,0.00024937,3.685e-05,0.0,0 STARLINK-3759,1 52299U 22041AQ  23131.06228287  .00003685  00000-0  24937-3 0  9991,2 52299  53.2179  59.2517 0000964  83.5090 276.6012 15.08854255 58469,6917.837,95.437,540.369,539.035,0.0
52299.0,STARLINK-3759,PAYLOAD,2023-05-12 01:20:29,15.0883655,0.0001225,53.2176,54.792,58.7241,301.3871,-0.0002009,-3.483e-05,0.0,0 STARLINK-3759,1 52299U 22041AQ  23132.05589388 -.00003483  00000-0 -20090-3 0  9997,2 52299  53.2176  54.7920 0001225  58.7241 301.3871 15.08836550 59836,6917.891,95.438,540.603,538.908,0.0
52299.0,STARLINK-3759,PAYLOAD,2023-05-12 22:00:29,15.08857592,0.0001259,53.2165,50.9255,65.5703,294.5421,0.00022506,3.297e-05,0.0,0 STARLINK-3759,1 52299U 22041AQ  23132.91700382  .00003297  00000-0  22506-3 0  9996,2 52299  53.2165  50.9255 0001259  65.5703 294.5421 15.08857592 59966,6917.827,95.436,540.563,538.821,0.0
52299.0,STARLINK-3759,PAYLOAD,2023-05-13 04:22:01,15.08865523,0.0001314,53.2177,49.7335,82.3705,277.7437,0.00048429,7.433e-05,0.0,0 STARLINK-3759,1 52299U 22041AQ  23133.18195717  .00007433  00000-0  48429-3 0  9994,2 52299  53.2177  49.7335 0001314  82.3705 277.7437 15.08865523 58787,6917.802,95.436,540.576,538.758,0.0
52299.0,STARLINK-3759,PAYLOAD,2023-05-14 01:02:02,15.08838059,0.0001251,53.2175,45.8681,81.388,278.7254,-9.4424e-05,-1.79e-05,0.0,0 STARLINK-3759,1 52299U 22041AQ  23134.04308953 -.00001790  00000-0 -94424-4 0  9997,2 52299  53.2175  45.8681 0001251  81.3880 278.7254 15.08838059 60133,6917.886,95.438,540.617,538.886,0.0
52299.0,STARLINK-3759,PAYLOAD,2023-05-14 05:48:12,15.08841693,0.0001268,53.2181,44.976,84.6607,275.4529,0.00020502,2.977e-05,0.0,0 STARLINK-3759,1 52299U 22041AQ  23134.24180929  .00002977  00000-0  20502-3 0  9991,2 52299  53.2181  44.9760 0001268  84.6607 275.4529 15.08841693 58942,6917.875,95.437,540.617,538.863,0.0
52299.0,STARLINK-3759,PAYLOAD,2023-05-14 21:42:04,15.08837015,0.0001327,53.218,42.0058,99.2965,260.8177,0.00035651,5.39e-05,0.0,0 STARLINK-3759,1 52299U 22041AQ  23134.90421477  .00005390  00000-0  35651-3 0  9993,2 52299  53.2180  42.0058 0001327  99.2965 260.8177 15.08837015 59047,6917.89,95.438,540.673,538.837,0.0
52299.0,STARLINK-3759,PAYLOAD,2023-05-15 10:25:09,15.08839344,0.0001399,53.2185,39.6305,111.199,248.9152,0.00027871,4.15e-05,0.0,0 STARLINK-3759,1 52299U 22041AQ  23135.43413563  .00004150  00000-0  27871-3 0  9997,2 52299  53.2185  39.6305 0001399 111.1990 248.9152 15.08839344 60342,6917.882,95.438,540.715,538.78,0.0
52299.0,STARLINK-3759,PAYLOAD,2023-05-16 00:43:37,15.08840783,0.0001333,53.218,36.954,111.8575,248.2559,0.00019286,2.783e-05,0.0,0 STARLINK-3759,1 52299U 22041AQ  23136.03029554  .00002783  00000-0  19286-3 0  9998,2 52299  53.2180  36.9540 0001333 111.8575 248.2559 15.08840783 59219,6917.878,95.438,540.665,538.821,0.0
52299.0,STARLINK-3759,PAYLOAD,2023-05-17 02:09:47,15.08842627,0.0001093,53.2174,32.1936,96.4141,263.6976,9.7529e-05,1.265e-05,0.0,0 STARLINK-3759,1 52299U 22041AQ  23137.09013632  .00001265  00000-0  97529-4 0  9996,2 52299  53.2174  32.1936 0001093  96.4141 263.6976 15.08842627 60595,6917.872,95.437,540.493,538.981,0.0
